ONEWEB-0327             
1 49196U 21083L   23322.12167077 -.00000002  00000+0 -36881-4 0  9999
2 49196  87.9217 162.8775 0002101  81.8735 278.2636 13.18686882107145
ONEWEB-0328             
1 49197U 21083M   23322.05747379  .00000350  00000+0  92241-3 0  9996
2 49197  87.8985 147.7290 0001586  94.0764 266.0546 13.13469494108515
ONEWEB-0331             
1 49198U 21083N   23321.83815474  .00000188  00000+0  44478-3 0  9992
2 49198  87.9154 162.9247 0001806  86.7513 273.3826 13.18684628105816
ONEWEB-0333             
1 49199U 21083P   23322.05219929  .00000457  00000+0  12172-2 0  9995
2 49199  87.8993 147.7329 0001314  82.0090 278.1189 13.13467524108527
ONEWEB-0334             
1 49200U 21083Q   23322.15103531 -.00000125  00000+0 -33825-3 0  9993
2 49200  87.9170 102.0219 0001039  62.6848 297.4391 13.20770059113735
ONEWEB-0335             
1 49201U 21083R   23322.04794511  .00000522  00000+0  13952-2 0  9993
2 49201  87.8991 147.7224 0001471  94.2623 265.8674 13.13467535108539
ONEWEB-0336             
1 49202U 21083S   23321.94003381 -.00000254  00000+0 -73002-3 0  9997
2 49202  87.8984 147.7418 0001450  83.2134 276.9160 13.13470454107221
ONEWEB-0337             
1 49203U 21083T   23322.02467863 -.00001420  00000+0 -39240-2 0  9998
2 49203  87.8988 147.7226 0002052  75.5615 284.5741 13.13478813108532
